CCSDS_OMM_VERS = 2.0
CREATION_DATE  = 
ORIGINATOR     = 

OBJECT_NAME    = CZ-2C R/B
OBJECT_ID      = 2022-132E
CENTER_NAME    = EARTH
REF_FRAME      = TEME
TIME_SYSTEM    = UTC
MEAN_ELEMENT_THEORY = SGP/SGP4

EPOCH          = 2025-12-27T23:36:35.678592
MEAN_MOTION    = 15.55773002
ECCENTRICITY   = .0020475
INCLINATION    = 97.2952
RA_OF_ASC_NODE = 358.4840
ARG_OF_PERICENTER = 4.5506
MEAN_ANOMALY   = 355.5931

EPHEMERIS_TYPE = 0
CLASSIFICATION_TYPE = U
NORAD_CAT_ID   = 54039
ELEMENT_SET_NO = 999
REV_AT_EPOCH   = 17920
BSTAR          = .53848E-3
MEAN_MOTION_DOT = .37496E-3
MEAN_MOTION_DDOT = 0

CCSDS_OMM_VERS = 2.0
CREATION_DATE  = 
ORIGINATOR     = 

OBJECT_NAME    = GSLV R/B
OBJECT_ID      = 2022-138AN
CENTER_NAME    = EARTH
REF_FRAME      = TEME
TIME_SYSTEM    = UTC
MEAN_ELEMENT_THEORY = SGP/SGP4

EPOCH          = 2025-12-27T23:18:32.818752
MEAN_MOTION    = 14.96209672
ECCENTRICITY   = .0023794
INCLINATION    = 87.3823
RA_OF_ASC_NODE = 190.3723
ARG_OF_PERICENTER = 55.7833
MEAN_ANOMALY   = 304.5648

EPHEMERIS_TYPE = 0
CLASSIFICATION_TYPE = U
NORAD_CAT_ID   = 54149
ELEMENT_SET_NO = 999
REV_AT_EPOCH   = 17320
BSTAR          = .26109E-3
MEAN_MOTION_DOT = .2987E-4
MEAN_MOTION_DDOT = 0

CCSDS_OMM_VERS = 2.0
CREATION_DATE  = 
ORIGINATOR     = 

OBJECT_NAME    = XRISM
OBJECT_ID      = 2023-137A
CENTER_NAME    = EARTH
REF_FRAME      = TEME
TIME_SYSTEM    = UTC
MEAN_ELEMENT_THEORY = SGP/SGP4

EPOCH          = 2025-12-28T03:58:52.660128
MEAN_MOTION    = 15.10505512
ECCENTRICITY   = .0007578
INCLINATION    = 31.0032
RA_OF_ASC_NODE = 25.9363
ARG_OF_PERICENTER = 40.9515
MEAN_ANOMALY   = 319.1691

EPHEMERIS_TYPE = 0
CLASSIFICATION_TYPE = U
NORAD_CAT_ID   = 57800
ELEMENT_SET_NO = 999
REV_AT_EPOCH   = 12696
BSTAR          = .45726E-3
MEAN_MOTION_DOT = .7822E-4
MEAN_MOTION_DDOT = 0

CCSDS_OMM_VERS = 2.0
CREATION_DATE  = 
ORIGINATOR     = 

OBJECT_NAME    = ACS3
OBJECT_ID      = 2024-077B
CENTER_NAME    = EARTH
REF_FRAME      = TEME
TIME_SYSTEM    = UTC
MEAN_ELEMENT_THEORY = SGP/SGP4

EPOCH          = 2025-12-27T21:58:42.408768
MEAN_MOTION    = 13.86214031
ECCENTRICITY   = .0073257
INCLINATION    = 97.2570
RA_OF_ASC_NODE = 314.1314
ARG_OF_PERICENTER = 300.6710
MEAN_ANOMALY   = 58.7246

EPHEMERIS_TYPE = 0
CLASSIFICATION_TYPE = U
NORAD_CAT_ID   = 59588
ELEMENT_SET_NO = 999
REV_AT_EPOCH   = 8424
BSTAR          = .24825E-1
MEAN_MOTION_DOT = .29346E-3
MEAN_MOTION_DDOT = 0

CCSDS_OMM_VERS = 2.0
CREATION_DATE  = 
ORIGINATOR     = 

OBJECT_NAME    = SZ-21 MODULE
OBJECT_ID      = 2025-246C
CENTER_NAME    = EARTH
REF_FRAME      = TEME
TIME_SYSTEM    = UTC
MEAN_ELEMENT_THEORY = SGP/SGP4

EPOCH          = 2025-12-28T03:08:44.397888
MEAN_MOTION    = 15.63328150
ECCENTRICITY   = .0003923
INCLINATION    = 41.4763
RA_OF_ASC_NODE = 282.1006
ARG_OF_PERICENTER = 343.9994
MEAN_ANOMALY   = 16.0721

EPHEMERIS_TYPE = 0
CLASSIFICATION_TYPE = U
NORAD_CAT_ID   = 66515
ELEMENT_SET_NO = 999
REV_AT_EPOCH   = 685
BSTAR          = .35029E-3
MEAN_MOTION_DOT = .32949E-3
MEAN_MOTION_DDOT = 0

