CZ-2C R/B               
1 54039U 22132E   25361.98374628  .00037496  00000+0  53848-3 0  9994
2 54039  97.2952 358.4840 0020475   4.5506 355.5931 15.55773002179202
GSLV R/B                
1 54149U 22138AN  25361.97121318  .00002987  00000+0  26109-3 0  9994
2 54149  87.3823 190.3723 0023794  55.7833 304.5648 14.96209672173206
XRISM                   
1 57800U 23137A   25362.16588727  .00007822  00000+0  45726-3 0  9993
2 57800  31.0032  25.9363 0007578  40.9515 319.1691 15.10505512126969
ACS3                    
1 59588U 24077B   25361.91576862  .00029346  00000+0  24825-1 0  9991
2 59588  97.2570 314.1314 0073257 300.6710  58.7246 13.86214031 84244
SZ-21 MODULE            
1 66515U 25246C   25362.13106942  .00032949  00000+0  35029-3 0  9994
2 66515  41.4763 282.1006 0003923 343.9994  16.0721 15.63328150  6857
